{
  "type": "FeatureCollection",
  "features": [
    {
      "type": "Feature",
      "properties": {
        "norad_id": 66484,
        "name": "STARLINK-35371",
        "group": "last-30-days",
        "lat": 39.947391844076336,
        "lon": -164.65643565458797,
        "alt_km": 369.55264291117965,
        "timestamp": "2025-12-02T10:50:46.052408+00:00",
        "meta_object_name": "STARLINK-35371",
        "meta_object_id": "2025-262AE",
        "meta_epoch": "2025-12-02T04:00:03.998880",
        "meta_mean_motion": 15.65846597,
        "meta_eccentricity": 0.000161,
        "meta_inclination": 42.9997,
        "meta_ra_of_asc_node": 133.0473,
        "meta_arg_of_pericenter": 264.2328,
        "meta_mean_anomaly": 357.1672,
        "meta_ephemeris_type": 0,
        "meta_classification_type": "U",
        "meta_norad_cat_id": 66484,
        "meta_element_set_no": 999,
        "meta_rev_at_epoch": 393,
        "meta_bstar": -0.023541,
        "meta_mean_motion_dot": -0.02143262,
        "meta_mean_motion_ddot": 0,
        "tle_line1": "1 66484U 25262AE  25336.16671295 -.02143262  00000+0 -23541-1 0  9998",
        "tle_line2": "2 66484  42.9997 133.0473 0001610 264.2328 357.1672 15.65846597  3938"
      },
      "geometry": {
        "type": "Point",
        "coordinates": [
          -164.65643565458797,
          39.947391844076336
        ]
      }
    },
    {
      "type": "Feature",
      "properties": {
        "norad_id": 66485,
        "name": "STARLINK-34774",
        "group": "last-30-days",
        "lat": 36.33781033295209,
        "lon": -46.13057788054092,
        "alt_km": 340.04385158990226,
        "timestamp": "2025-12-02T10:50:46.052419+00:00",
        "meta_object_name": "STARLINK-34774",
        "meta_object_id": "2025-263A",
        "meta_epoch": "2025-12-02T04:00:03.998880",
        "meta_mean_motion": 15.75056734,
        "meta_eccentricity": 0.0002157,
        "meta_inclination": 43.0032,
        "meta_ra_of_asc_node": 187.7213,
        "meta_arg_of_pericenter": 273.8072,
        "meta_mean_anomaly": 26.6433,
        "meta_ephemeris_type": 0,
        "meta_classification_type": "U",
        "meta_norad_cat_id": 66485,
        "meta_element_set_no": 999,
        "meta_rev_at_epoch": 393,
        "meta_bstar": -0.00021146,
        "meta_mean_motion_dot": -0.00032862,
        "meta_mean_motion_ddot": 0,
        "tle_line1": "1 66485U 25263A   25336.16671295 -.00032862  00000+0 -21146-3 0  9992",
        "tle_line2": "2 66485  43.0032 187.7213 0002157 273.8072  26.6433 15.75056734  3938"
      },
      "geometry": {
        "type": "Point",
        "coordinates": [
          -46.13057788054092,
          36.33781033295209
        ]
      }
    },
    {
      "type": "Feature",
      "properties": {
        "norad_id": 66486,
        "name": "STARLINK-34844",
        "group": "last-30-days",
        "lat": 35.511110247246904,
        "lon": -43.99451731965356,
        "alt_km": 339.9906576842195,
        "timestamp": "2025-12-02T10:50:46.052431+00:00",
        "meta_object_name": "STARLINK-34844",
        "meta_object_id": "2025-263B",
        "meta_epoch": "2025-12-02T04:00:03.998880",
        "meta_mean_motion": 15.75024587,
        "meta_eccentricity": 0.000193,
        "meta_inclination": 42.999,
        "meta_ra_of_asc_node": 187.7156,
        "meta_arg_of_pericenter": 268.3894,
        "meta_mean_anomaly": 34.0038,
        "meta_ephemeris_type": 0,
        "meta_classification_type": "U",
        "meta_norad_cat_id": 66486,
        "meta_element_set_no": 999,
        "meta_rev_at_epoch": 388,
        "meta_bstar": 1.8528e-05,
        "meta_mean_motion_dot": 2.367e-05,
        "meta_mean_motion_ddot": 0,
        "tle_line1": "1 66486U 25263B   25336.16671295  .00002367  00000+0  18528-4 0  9999",
        "tle_line2": "2 66486  42.9990 187.7156 0001930 268.3894  34.0038 15.75024587  3884"
      },
      "geometry": {
        "type": "Point",
        "coordinates": [
          -43.99451731965356,
          35.511110247246904
        ]
      }
    },
    {
      "type": "Feature",
      "properties": {
        "norad_id": 66487,
        "name": "STARLINK-34733",
        "group": "last-30-days",
        "lat": 34.67036323272548,
        "lon": -41.94714120129669,
        "alt_km": 339.97882311971625,
        "timestamp": "2025-12-02T10:50:46.052441+00:00",
        "meta_object_name": "STARLINK-34733",
        "meta_object_id": "2025-263C",
        "meta_epoch": "2025-12-01T14:00:01.999872",
        "meta_mean_motion": 15.75048056,
        "meta_eccentricity": 0.00016418,
        "meta_inclination": 42.9993,
        "meta_ra_of_asc_node": 191.2499,
        "meta_arg_of_pericenter": 263.4131,
        "meta_mean_anomaly": 329.1096,
        "meta_ephemeris_type": 0,
        "meta_classification_type": "U",
        "meta_norad_cat_id": 66487,
        "meta_element_set_no": 999,
        "meta_rev_at_epoch": 384,
        "meta_bstar": -0.00013820778,
        "meta_mean_motion_dot": -0.00021661,
        "meta_mean_motion_ddot": 0,
        "tle_line1": "1 66487U 25263C   25335.58335648 -.00021661  00000+0 -13821-3 0  9994",
        "tle_line2": "2 66487  42.9993 191.2499 0001641 263.4131 329.1096 15.75048056  3842"
      },
      "geometry": {
        "type": "Point",
        "coordinates": [
          -41.94714120129669,
          34.67036323272548
        ]
      }
    },
    {
      "type": "Feature",
      "properties": {
        "norad_id": 66488,
        "name": "STARLINK-35515",
        "group": "last-30-days",
        "lat": 33.75511561930513,
        "lon": -39.84981169127254,
        "alt_km": 340.21814050165995,
        "timestamp": "2025-12-02T10:50:46.052451+00:00",
        "meta_object_name": "STARLINK-35515",
        "meta_object_id": "2025-263D",
        "meta_epoch": "2025-12-02T04:00:03.998880",
        "meta_mean_motion": 15.7506335,
        "meta_eccentricity": 0.0001722,
        "meta_inclination": 42.9992,
        "meta_ra_of_asc_node": 187.7061,
        "meta_arg_of_pericenter": 279.0335,
        "meta_mean_anomaly": 27.1732,
        "meta_ephemeris_type": 0,
        "meta_classification_type": "U",
        "meta_norad_cat_id": 66488,
        "meta_element_set_no": 999,
        "meta_rev_at_epoch": 393,
        "meta_bstar": -0.0004062,
        "meta_mean_motion_dot": -0.00062481,
        "meta_mean_motion_ddot": 0,
        "tle_line1": "1 66488U 25263D   25336.16671295 -.00062481  00000+0 -40620-3 0  9993",
        "tle_line2": "2 66488  42.9992 187.7061 0001722 279.0335  27.1732 15.75063350  3932"
      },
      "geometry": {
        "type": "Point",
        "coordinates": [
          -39.84981169127254,
          33.75511561930513
        ]
      }
    },
    {
      "type": "Feature",
      "properties": {
        "norad_id": 66489,
        "name": "STARLINK-35696",
        "group": "last-30-days",
        "lat": 32.8309795833134,
        "lon": -37.853276567711596,
        "alt_km": 340.23419806210313,
        "timestamp": "2025-12-02T10:50:46.052461+00:00",
        "meta_object_name": "STARLINK-35696",
        "meta_object_id": "2025-263E",
        "meta_epoch": "2025-12-02T04:00:03.998880",
        "meta_mean_motion": 15.75044964,
        "meta_eccentricity": 0.0001846,
        "meta_inclination": 42.9991,
        "meta_ra_of_asc_node": 187.7013,
        "meta_arg_of_pericenter": 264.9522,
        "meta_mean_anomaly": 43.1747,
        "meta_ephemeris_type": 0,
        "meta_classification_type": "U",
        "meta_norad_cat_id": 66489,
        "meta_element_set_no": 999,
        "meta_rev_at_epoch": 393,
        "meta_bstar": -0.00011447,
        "meta_mean_motion_dot": -0.00018029,
        "meta_mean_motion_ddot": 0,
        "tle_line1": "1 66489U 25263E   25336.16671295 -.00018029  00000+0 -11447-3 0  9998",
        "tle_line2": "2 66489  42.9991 187.7013 0001846 264.9522  43.1747 15.75044964  3931"
      },
      "geometry": {
        "type": "Point",
        "coordinates": [
          -37.853276567711596,
          32.8309795833134
        ]
      }
    },
    {
      "type": "Feature",
      "properties": {
        "norad_id": 66490,
        "name": "STARLINK-35693",
        "group": "last-30-days",
        "lat": 31.868919649519224,
        "lon": -35.885332186792546,
        "alt_km": 340.4918488918338,
        "timestamp": "2025-12-02T10:50:46.052473+00:00",
        "meta_object_name": "STARLINK-35693",
        "meta_object_id": "2025-263F",
        "meta_epoch": "2025-12-02T04:00:03.998880",
        "meta_mean_motion": 15.75071538,
        "meta_eccentricity": 0.0001733,
        "meta_inclination": 42.9991,
        "meta_ra_of_asc_node": 187.6962,
        "meta_arg_of_pericenter": 279.4986,
        "meta_mean_anomaly": 30.5345,
        "meta_ephemeris_type": 0,
        "meta_classification_type": "U",
        "meta_norad_cat_id": 66490,
        "meta_element_set_no": 999,
        "meta_rev_at_epoch": 393,
        "meta_bstar": -0.00046535,
        "meta_mean_motion_dot": -0.0007146,
        "meta_mean_motion_ddot": 0,
        "tle_line1": "1 66490U 25263F   25336.16671295 -.00071460  00000+0 -46535-3 0  9994",
        "tle_line2": "2 66490  42.9991 187.6962 0001733 279.4986  30.5345 15.75071538  3936"
      },
      "geometry": {
        "type": "Point",
        "coordinates": [
          -35.885332186792546,
          31.868919649519224
        ]
      }
    }
  ]
}